NORAD_CAT_ID,OBJECT_NAME,OBJECT_TYPE,EPOCH,MEAN_MOTION,ECCENTRICITY,INCLINATION,RA_OF_ASC_NODE,ARG_OF_PERICENTER,MEAN_ANOMALY,BSTAR,MEAN_MOTION_DOT,MEAN_MOTION_DDOT,TLE_LINE0,TLE_LINE1,TLE_LINE2,SEMIMAJOR_AXIS,PERIOD,APOGEE,PERIGEE,DECAYED
51878.0,STARLINK-3575,PAYLOAD,2022-03-07 20:00:01,15.82033307,0.0001119,53.2173,123.3622,76.5098,101.2934,-0.0046798,-0.00881789,0.0,0 STARLINK-3575,1 51878U 22022AC  22066.83334491 -.00881789  00000-0 -46798-2 0  9997,2 51878  53.2173 123.3622 0001119  76.5098 101.2934 15.82033307  1887,6702.828,91.022,325.443,323.943,0.0
51878.0,STARLINK-3575,PAYLOAD,2022-03-08 14:00:01,15.80610274,0.000108,53.2173,119.6074,76.1986,53.6391,-0.0049236,-0.0086929,0.0,0 STARLINK-3575,1 51878U 22022AC  22067.58334491 -.00869290  00000-0 -49236-2 0  9993,2 51878  53.2173 119.6074 0001080  76.1986  53.6391 15.80610274  1457,6706.851,91.104,329.44,327.991,0.0
51878.0,STARLINK-3575,PAYLOAD,2022-03-08 20:00:01,15.80144443,0.0001101,53.2175,118.3555,63.9278,49.0688,-0.0050936,-0.00879093,0.0,0 STARLINK-3575,1 51878U 22022AC  22067.83334491 -.00879093  00000-0 -50936-2 0  9992,2 51878  53.2175 118.3555 0001101  63.9278  49.0688 15.80144443  2034,6708.169,91.131,330.772,329.295,0.0
51878.0,STARLINK-3575,PAYLOAD,2022-03-08 22:00:00,15.79985403,0.0001148,53.2176,117.9383,73.9449,153.3448,-0.0051122,-0.00876172,0.0,0 STARLINK-3575,1 51878U 22022AC  22067.91667824 -.00876172  00000-0 -51122-2 0  9993,2 51878  53.2176 117.9383 0001148  73.9449 153.3448 15.79985403  1502,6708.619000000002,91.14,331.254,329.714,0.0
51878.0,STARLINK-3575,PAYLOAD,2022-03-09 14:00:01,15.78723977,9.65e-05,53.2173,114.6111,79.1433,340.7828,-0.0053806,-0.00870855,0.0,0 STARLINK-3575,1 51878U 22022AC  22068.58334491 -.00870855  00000-0 -53806-2 0  9991,2 51878  53.2173 114.6111 0000965  79.1433 340.7828 15.78723977  1610,6712.191999999999,91.213,334.705,333.409,0.0
51878.0,STARLINK-3575,PAYLOAD,2022-03-09 22:00:01,15.78095922,0.000118,53.2173,112.9466,60.767,94.4092,-0.0055488,-0.00872707,0.0,0 STARLINK-3575,1 51878U 22022AC  22068.91668981 -.00872707  00000-0 -55488-2 0  9998,2 51878  53.2173 112.9466 0001180  60.7670  94.4092 15.78095922  2207,6713.973000000001,91.249,336.63,335.046,0.0
51878.0,STARLINK-3575,PAYLOAD,2022-03-10 14:00:01,15.76837382,9.51e-05,53.2173,109.6288,77.0702,266.1381,-0.0058667,-0.00871911,0.0,0 STARLINK-3575,1 51878U 22022AC  22069.58334491 -.00871911  00000-0 -58667-2 0  9996,2 51878  53.2173 109.6288 0000951  77.0702 266.1381 15.76837382  1776,6717.545,91.322,340.0490000000001,338.771,0.0
51878.0,STARLINK-3575,PAYLOAD,2022-03-10 20:00:01,15.76368523,0.0001024,53.2176,108.3836,67.891,255.0743,-0.0060336,-0.00877572,0.0,0 STARLINK-3575,1 51878U 22022AC  22069.83334491 -.00877572  00000-0 -60336-2 0  9999,2 51878  53.2176 108.3836 0001024  67.8910 255.0743 15.76368523  2354,6718.877,91.349,341.43,340.0540000000001,0.0
51878.0,STARLINK-3575,PAYLOAD,2022-03-10 22:00:01,15.76207805,0.000106,53.2175,107.9689,59.4692,16.7212,-0.0060338,-0.00871955,0.0,0 STARLINK-3575,1 51878U 22022AC  22069.91668981 -.00871955  00000-0 -60338-2 0  9993,2 51878  53.2175 107.9689 0001060  59.4692  16.7212 15.76207805  1827,6719.333000000001,91.359,341.911,340.486,0.0
51878.0,STARLINK-3575,PAYLOAD,2022-03-11 12:00:00,15.75105506,0.0001194,53.2176,105.0738,70.2621,76.6437,-0.0063184,-0.00869905,0.0,0 STARLINK-3575,1 51878U 22022AC  22070.50001157 -.00869905  00000-0 -63184-2 0  9990,2 51878  53.2176 105.0738 0001194  70.2621  76.6437 15.75105506  1911,6722.468000000003,91.422,345.136,343.53,0.0
51878.0,STARLINK-3575,PAYLOAD,2022-03-11 20:00:01,15.74480675,0.0001269,53.2175,103.4186,58.6141,179.1268,-0.0065523,-0.00876989,0.0,0 STARLINK-3575,1 51878U 22022AC  22070.83334491 -.00876989  00000-0 -65523-2 0  9995,2 51878  53.2175 103.4186 0001269  58.6141 179.1268 15.74480675  2519,6724.246,91.459,346.965,345.2580000000001,0.0
51878.0,STARLINK-3575,PAYLOAD,2022-03-11 22:00:00,15.74320638,0.0001061,53.2173,103.0051,54.7807,295.5523,-0.0065663,-0.00873083,0.0,0 STARLINK-3575,1 51878U 22022AC  22070.91667824 -.00873083  00000-0 -65663-2 0  9990,2 51878  53.2173 103.0051 0001061  54.7807 295.5523 15.74320638  1989,6724.7019999999975,91.468,347.281,345.85400000000016,0.0
51878.0,STARLINK-3575,PAYLOAD,2022-03-12 14:00:01,15.73204678,0.00011,53.2172,99.7056,73.8782,95.5011,-2.2189e-07,-6.51e-06,0.0,0 STARLINK-3575,1 51878U 22022AC  22071.58334491 -.00000651  00000-0 -22189-6 0  9998,2 51878  53.2172  99.7056 0001100  73.8782  95.5011 15.73204678  2639,6727.882,91.533,350.487,349.00699999999995,0.0
51878.0,STARLINK-3575,PAYLOAD,2022-03-12 20:00:01,15.73205998,9.25e-05,53.2193,98.4742,50.8679,95.2511,0.00044692,0.00062586,0.0,0 STARLINK-3575,1 51878U 22022AC  22071.83334491  .00062586  00000-0  44692-3 0  9999,2 51878  53.2193  98.4742 0000925  50.8679  95.2511 15.73205998  2665,6727.878000000002,91.533,350.365,349.121,0.0
51878.0,STARLINK-3575,PAYLOAD,2022-03-12 22:00:00,15.7319599,9.25e-05,53.2189,98.0603,53.676,204.6862,0.00075639,0.00106874,0.0,0 STARLINK-3575,1 51878U 22022AC  22071.91667824  .00106874  00000-0  75639-3 0  9991,2 51878  53.2189  98.0603 0000925  53.6760 204.6862 15.73195990  2142,6727.906999999997,91.533,350.394,349.149,0.0
51878.0,STARLINK-3575,PAYLOAD,2022-03-13 14:00:01,15.73245164,0.0001281999999999,53.2184,94.7644,49.4343,26.8748,-0.00030401,-0.00043149,0.0,0 STARLINK-3575,1 51878U 22022AC  22072.58334491 -.00043149  00000-0 -30401-3 0  9991,2 51878  53.2184  94.7644 0001282  49.4343  26.8748 15.73245164  2788,6727.766,91.531,350.494,348.769,0.0
51878.0,STARLINK-3575,PAYLOAD,2022-03-13 22:00:01,15.7319041,0.0001085,53.2183,93.113,61.3516,103.9824,-0.00012904,-0.00018681,0.0,0 STARLINK-3575,1 51878U 22022AC  22072.91668981 -.00018681  00000-0 -12904-3 0  9993,2 51878  53.2183  93.1130 0001085  61.3516 103.9824 15.73190410  2297,6727.9230000000025,91.534,350.517,349.05800000000005,0.0
51878.0,STARLINK-3575,PAYLOAD,2022-03-14 04:00:00,15.73203802,0.0001225,53.2188,91.8767,64.6117,77.3757,0.00028984,0.00040258,0.0,0 STARLINK-3575,1 51878U 22022AC  22073.16667824  .00040258  00000-0  28984-3 0  9994,2 51878  53.2188  91.8767 0001225  64.6117  77.3757 15.73203802  2875,6727.884,91.533,350.5730000000001,348.925,0.0
51878.0,STARLINK-3575,PAYLOAD,2022-03-14 12:00:00,15.73263722,0.0001262,53.2187,90.2288,53.7598,177.207,0.00023924,0.0003318,0.0,0 STARLINK-3575,1 51878U 22022AC  22073.50001157  .00033180  00000-0  23924-3 0  9998,2 51878  53.2187  90.2288 0001262  53.7598 177.2070 15.73263722  2930,6727.714,91.529,350.42800000000005,348.72900000000016,0.0
51878.0,STARLINK-3575,PAYLOAD,2022-03-14 14:00:01,15.73297452,0.0001236,53.2186,89.816,51.8408,291.4357,-0.00022537,-0.0003226,0.0,0 STARLINK-3575,1 51878U 22022AC  22073.58335648 -.00032260  00000-0 -22537-3 0  9990,2 51878  53.2186  89.8160 0001236  51.8408 291.4357 15.73297452  2408,6727.6169999999975,91.528,350.314,348.651,0.0
51878.0,STARLINK-3575,PAYLOAD,2022-03-14 20:00:01,15.73251738,0.0001102,53.2189,88.5771,59.7379,260.2582,0.00042611,0.0005974,0.0,0 STARLINK-3575,1 51878U 22022AC  22073.83334491  .00059740  00000-0  42611-3 0  9998,2 51878  53.2189  88.5771 0001102  59.7379 260.2582 15.73251738  2446,6727.748000000001,91.53,350.35400000000016,348.871,0.0
51878.0,STARLINK-3575,PAYLOAD,2022-03-14 22:00:00,15.73255435,0.000111,53.2188,88.1643,60.6354,11.5922,0.00012475,0.00016964,0.0,0 STARLINK-3575,1 51878U 22022AC  22073.91667824  .00016964  00000-0  12475-3 0  9992,2 51878  53.2188  88.1643 0001110  60.6354  11.5922 15.73255435  2995,6727.736999999999,91.53,350.349,348.855,0.0
51878.0,STARLINK-3575,PAYLOAD,2022-03-15 02:00:01,15.73310918,0.0001163,53.219,87.3399,63.79600000000001,232.9196,-0.00084288,-0.00117825,0.0,0 STARLINK-3575,1 51878U 22022AC  22074.08334491 -.00117825  00000-0 -84288-3 0  9993,2 51878  53.2190  87.3399 0001163  63.7960 232.9196 15.73310918  3027,6727.579000000002,91.527,350.226,348.662,0.0
51878.0,STARLINK-3575,PAYLOAD,2022-03-15 22:00:00,15.73008018,0.0001399,53.218,83.21600000000002,70.8754,268.0571,0.0013074,0.0018544,0.0,0 STARLINK-3575,1 51878U 22022AC  22074.91667824  .00185440  00000-0  13074-2 0  9994,2 51878  53.2180  83.2160 0001399  70.8754 268.0571 15.73008018  3154,6728.443,91.544,351.249,349.366,0.0
51878.0,STARLINK-3575,PAYLOAD,2022-03-16 12:00:00,15.73163816,0.0001389,53.2182,80.3322,56.5504,347.8116,0.00063311,0.00089041,0.0,0 STARLINK-3575,1 51878U 22022AC  22075.50001157  .00089041  00000-0  63311-3 0  9991,2 51878  53.2182  80.3322 0001389  56.5504 347.8116 15.73163816  3246,6727.998000000001,91.535,350.798,348.92900000000014,0.0
51878.0,STARLINK-3575,PAYLOAD,2022-03-16 14:00:01,15.73200637,0.0001354,53.2183,79.9194,58.299,98.2814,0.00023402,0.0003235,0.0,0 STARLINK-3575,1 51878U 22022AC  22075.58334491  .00032350  00000-0  23402-3 0  9997,2 51878  53.2183  79.9194 0001354  58.2990  98.2814 15.73200637  2725,6727.893,91.533,350.6690000000001,348.847,0.0
51878.0,STARLINK-3575,PAYLOAD,2022-03-16 20:00:01,15.73198628,0.0001207,53.2185,78.6806,65.5805,67.7067,0.00049455,0.00069357,0.0,0 STARLINK-3575,1 51878U 22022AC  22075.83334491  .00069357  00000-0  49455-3 0  9998,2 51878  53.2185  78.6806 0001207  65.5805  67.7067 15.73198628  3296,6727.899,91.533,350.576,348.952,0.0
51878.0,STARLINK-3575,PAYLOAD,2022-03-17 06:00:00,15.73214857,0.0001323,53.2185,76.6192,58.5473,275.9517,3.0297e-05,3.636e-05,0.0,0 STARLINK-3575,1 51878U 22022AC  22076.25001157  .00003636  00000-0  30297-4 0  9998,2 51878  53.2185  76.6192 0001323  58.5473 275.9517 15.73214857  3368,6727.853,91.532,350.608,348.82800000000015,0.0
51878.0,STARLINK-3575,PAYLOAD,2022-03-17 14:00:01,15.73260744,0.0001341,53.2179,74.9703,57.2962,6.135,-0.00056895,-0.00079921,0.0,0 STARLINK-3575,1 51878U 22022AC  22076.58334491 -.00079921  00000-0 -56895-3 0  9997,2 51878  53.2179  74.9703 0001341  57.2962   6.1350 15.73260744  2880,6727.722,91.53,350.48900000000015,348.685,0.0
